NORAD_CAT_ID,OBJECT_NAME,OBJECT_TYPE,EPOCH,MEAN_MOTION,ECCENTRICITY,INCLINATION,RA_OF_ASC_NODE,ARG_OF_PERICENTER,MEAN_ANOMALY,BSTAR,MEAN_MOTION_DOT,MEAN_MOTION_DDOT,TLE_LINE0,TLE_LINE1,TLE_LINE2,SEMIMAJOR_AXIS,PERIOD,APOGEE,PERIGEE,DECAYED
56789.0,STARLINK-6325,PAYLOAD,2023-10-08 17:31:58,15.6993584,0.0003083,70.0004,46.5072,265.4814,94.603,-5.7346e-06,-9.02e-06,0.0,0 STARLINK-6325,1 56789U 23078Y   23281.73053326 -.00000902  00000-0 -57346-5 0  9993,2 56789  70.0004  46.5072 0003083 265.4814  94.6030 15.69935840 21191,6737.218,91.723,361.16,357.005,0.0
56789.0,STARLINK-6325,PAYLOAD,2023-10-08 20:35:29,15.69919483,0.0002565,70.0003,46.1481,291.8547,68.2376,6.2382e-07,-1.37e-06,0.0,0 STARLINK-6325,1 56789U 23078Y   23281.85797877 -.00000137  00000-0  62382-6 0  9998,2 56789  70.0003  46.1481 0002565 291.8547  68.2376 15.69919483 20802,6737.264,91.724,360.857,357.401,0.0
56789.0,STARLINK-6325,PAYLOAD,2023-10-09 11:53:00,15.69907644,0.0002562,70.0002,44.3557,268.6235,91.4667,1.92e-05,2.095e-05,0.0,0 STARLINK-6325,1 56789U 23078Y   23282.49514599  .00002095  00000-0  19200-4 0  9990,2 56789  70.0002  44.3557 0002562 268.6235  91.4667 15.69907644 21312,6737.298,91.725,360.889,357.437,0.0
56789.0,STARLINK-6325,PAYLOAD,2023-10-09 19:31:44,15.6993522,0.0003632,69.9982,43.4611,267.5241,92.5539,3.4483e-05,3.937e-05,0.0,0 STARLINK-6325,1 56789U 23078Y   23282.81370970  .00003937  00000-0  34483-4 0  9995,2 56789  69.9982  43.4611 0003632 267.5241  92.5539 15.69935220 21367,6737.219,91.724,361.531,356.637,0.0
56789.0,STARLINK-6325,PAYLOAD,2023-10-10 10:49:16,15.69926037,0.0003077,70.0,41.67,256.781,103.3042,-6.1107e-07,-2.86e-06,0.0,0 STARLINK-6325,1 56789U 23078Y   23283.45089035 -.00000286  00000-0 -61107-6 0  9996,2 56789  70.0000  41.6700 0003077 256.7810 103.3042 15.69926037 21057,6737.246,91.724,361.184,357.038,0.0
56789.0,STARLINK-6325,PAYLOAD,2023-10-10 16:56:18,15.69911004,0.0003324,69.9989,40.9502,266.9754,93.1062,6.1305e-06,5.24e-06,0.0,0 STARLINK-6325,1 56789U 23078Y   23283.70576555  .00000524  00000-0  61305-5 0  9994,2 56789  69.9989  40.9502 0003324 266.9754  93.1062 15.69911004 21097,6737.289,91.725,361.393,356.914,0.0
56789.0,STARLINK-6325,PAYLOAD,2023-10-10 19:59:47,15.69935632,0.0002708,70.0002,40.595,268.204,91.8846,1.164e-05,1.188e-05,0.0,0 STARLINK-6325,1 56789U 23078Y   23283.83318449  .00001188  00000-0  11640-4 0  9997,2 56789  70.0002  40.5950 0002708 268.2040  91.8846 15.69935632 21523,6737.218,91.724,360.908,357.259,0.0
56789.0,STARLINK-6325,PAYLOAD,2023-10-11 09:45:33,15.69928877,0.0002731,69.9989,38.9835,255.9889,104.1003,-6.7411e-06,-1.023e-05,0.0,0 STARLINK-6325,1 56789U 23078Y   23284.40664348 -.00001023  00000-0 -67411-5 0  9991,2 56789  69.9989  38.9835 0002731 255.9889 104.1003 15.69928877 21208,6737.237,91.724,360.942,357.263,0.0
56789.0,STARLINK-6325,PAYLOAD,2023-10-11 14:20:49,15.69925478,0.0002902,69.9988,38.4456,256.9702,103.117,-9.1485e-07,-3.22e-06,0.0,0 STARLINK-6325,1 56789U 23078Y   23284.59779366 -.00000322  00000-0 -91485-6 0  9998,2 56789  69.9988  38.4456 0002902 256.9702 103.1170 15.69925478 21642,6737.247,91.724,361.067,357.157,0.0
56789.0,STARLINK-6325,PAYLOAD,2023-10-12 10:13:36,15.69923726,0.0003254,69.9974,36.1156,263.2,96.8825,-6.5916e-06,-1.005e-05,0.0,0 STARLINK-6325,1 56789U 23078Y   23285.42611411 -.00001005  00000-0 -65916-5 0  9995,2 56789  69.9974  36.1156 0003254 263.2000  96.8825 15.69923726 21360,6737.252,91.724,361.31,356.925,0.0
56789.0,STARLINK-6325,PAYLOAD,2023-10-12 19:24:06,15.69932078,0.0003051,69.9991,35.0431,262.204,97.8809,7.0313e-06,6.33e-06,0.0,0 STARLINK-6325,1 56789U 23078Y   23285.80840583  .00000633  00000-0  70313-5 0  9992,2 56789  69.9991  35.0431 0003051 262.2040  97.8809 15.69932078 21836,6737.228,91.724,361.149,357.038,0.0
56789.0,STARLINK-6325,PAYLOAD,2023-10-13 13:45:07,15.69974377,0.0002074,69.9996,32.893,262.2284,97.8677,-8.3962e-05,-0.00010314,0.0,0 STARLINK-6325,1 56789U 23078Y   23286.57300294 -.00010314  00000-0 -83962-4 0  9999,2 56789  69.9996  32.8930 0002074 262.2284  97.8677 15.69974377 21958,6737.107,91.721,360.37,357.575,0.0
56789.0,STARLINK-6325,PAYLOAD,2023-10-13 16:48:38,15.69925827,0.0003189,69.9982,32.5329,272.6345,87.4485,8.7656e-06,8.41e-06,0.0,0 STARLINK-6325,1 56789U 23078Y   23286.70044340  .00000841  00000-0  87656-5 0  9998,2 56789  69.9982  32.5329 0003189 272.6345  87.4485 15.69925827 21568,6737.246,91.724,361.26,356.963,0.0
56789.0,STARLINK-6325,PAYLOAD,2023-10-14 09:37:54,15.6992401,0.0002971,69.9994,30.564,270.8219,89.2636,7.2095e-06,6.54e-06,0.0,0 STARLINK-6325,1 56789U 23078Y   23287.40132826  .00000654  00000-0  72095-5 0  9996,2 56789  69.9994  30.5640 0002971 270.8219  89.2636 15.69924010 22082,6737.251,91.724,361.118,357.115,0.0
56789.0,STARLINK-6325,PAYLOAD,2023-10-14 17:16:41,15.69915196,0.0003204,69.9988,29.669,268.8057,91.2771,-3.8547e-06,-6.76e-06,0.0,0 STARLINK-6325,1 56789U 23078Y   23287.71992480 -.00000676  00000-0 -38547-5 0  9990,2 56789  69.9988  29.6690 0003204 268.8057  91.2771 15.69915196 21724,6737.277,91.725,361.3,356.983,0.0
56789.0,STARLINK-6325,PAYLOAD,2023-10-15 13:09:27,15.69913402,0.0003283,69.9978,27.3377,270.6143,89.4676,-3.9329e-06,-6.85e-06,0.0,0 STARLINK-6325,1 56789U 23078Y   23288.54824006 -.00000685  00000-0 -39329-5 0  9999,2 56789  69.9978  27.3377 0003283 270.6143  89.4676 15.69913402 22265,6737.282,91.725,361.359,356.935,0.0
56789.0,STARLINK-6325,PAYLOAD,2023-10-15 16:12:57,15.69919761,0.0002994,69.9989,26.9797,270.7396,89.3457,1.1018e-06,-8e-07,0.0,0 STARLINK-6325,1 56789U 23078Y   23288.67566984 -.00000080  00000-0  11018-5 0  9994,2 56789  69.9989  26.9797 0002994 270.7396  89.3457 15.69919761 21873,6737.264,91.724,361.146,357.111,0.0
56789.0,STARLINK-6325,PAYLOAD,2023-10-15 23:51:42,15.69939062,0.0003505,69.9979,26.0844,269.6097,90.4697,2.2987e-06,6.4e-07,0.0,0 STARLINK-6325,1 56789U 23078Y   23288.99423912  .00000064  00000-0  22987-5 0  9990,2 56789  69.9979  26.0844 0003505 269.6097  90.4697 15.69939062 21921,6737.208,91.723,361.435,356.712,0.0
56789.0,STARLINK-6325,PAYLOAD,2023-10-16 07:30:28,15.69926031,0.000291,69.9987,25.1876,264.1875,95.8989,2.4301e-06,8e-07,0.0,0 STARLINK-6325,1 56789U 23078Y   23289.31283198  .00000080  00000-0  24301-5 0  9997,2 56789  69.9987  25.1876 0002910 264.1875  95.8989 15.69926031 21978,6737.246,91.724,361.071,357.15,0.0
56789.0,STARLINK-6325,PAYLOAD,2023-10-16 09:02:14,15.699168,0.0003626,69.9981,25.0085,266.2961,93.782,-8.7516e-06,-1.265e-05,0.0,0 STARLINK-6325,1 56789U 23078Y   23289.37655588 -.00001265  00000-0 -87516-5 0  9994,2 56789  69.9981  25.0085 0003626 266.2961  93.7820 15.69916800 21982,6737.272,91.725,361.58,356.694,0.0
56789.0,STARLINK-6325,PAYLOAD,2023-10-16 16:40:59,15.69922261,0.0003169,69.9991,24.1133,263.4698,96.6137,1.4272e-07,-1.95e-06,0.0,0 STARLINK-6325,1 56789U 23078Y   23289.69513481 -.00000195  00000-0  14272-6 0  9994,2 56789  69.9991  24.1133 0003169 263.4698  96.6137 15.69922261 22033,6737.256,91.724,361.256,356.986,0.0
56789.0,STARLINK-6325,PAYLOAD,2023-10-17 12:33:46,15.69908897,0.0003337,69.9982,21.7846,268.5265,91.5548,1.1042e-05,1.114e-05,0.0,0 STARLINK-6325,1 56789U 23078Y   23290.52345778  .00001114  00000-0  11042-4 0  9991,2 56789  69.9982  21.7846 0003337 268.5265  91.5548 15.69908897 22578,6737.295,91.725,361.408,356.911,0.0
56789.0,STARLINK-6325,PAYLOAD,2023-10-17 23:16:02,15.69916562,0.0002726,69.9976,20.5314,270.9119,89.1765,1.159e-05,1.181e-05,0.0,0 STARLINK-6325,1 56789U 23078Y   23290.96947181  .00001181  00000-0  11590-4 0  9997,2 56789  69.9976  20.5314 0002726 270.9119  89.1765 15.69916562 22239,6737.273,91.725,360.974,357.301,0.0
56789.0,STARLINK-6325,PAYLOAD,2023-10-18 16:05:18,15.69919945,0.0002934,69.9971,18.561,270.9931,89.0929,3.4826e-06,2.06e-06,0.0,0 STARLINK-6325,1 56789U 23078Y   23291.67035525  .00000206  00000-0  34826-5 0  9991,2 56789  69.9971  18.5610 0002934 270.9931  89.0929 15.69919945 22759,6737.263,91.724,361.105,357.151,0.0
56789.0,STARLINK-6325,PAYLOAD,2023-10-19 08:54:35,15.69906943,0.0002845,69.997,16.5876,274.4764,85.6106,-5.9148e-06,-9.23e-06,0.0,0 STARLINK-6325,1 56789U 23078Y   23292.37124464 -.00000923  00000-0 -59148-5 0  9992,2 56789  69.9970  16.5876 0002845 274.4764  85.6106 15.69906943 22454,6737.3,91.725,361.082,357.248,0.0
56789.0,STARLINK-6325,PAYLOAD,2023-10-19 22:40:21,15.69915916,0.0003031,69.9971,14.9774,268.0952,91.9897,-8.2001e-06,-1.198e-05,0.0,0 STARLINK-6325,1 56789U 23078Y   23292.94469192 -.00001198  00000-0 -82001-5 0  9994,2 56789  69.9971  14.9774 0003031 268.0952  91.9897 15.69915916 22547,6737.275,91.725,361.182,357.097,0.0
56789.0,STARLINK-6325,PAYLOAD,2023-10-20 09:22:38,15.69906979,0.0002491,69.998,13.7224,264.8224,95.2688,-1.8169e-05,-2.394e-05,0.0,0 STARLINK-6325,1 56789U 23078Y   23293.39071921 -.00002394  00000-0 -18169-4 0  9995,2 56789  69.9980  13.7224 0002491 264.8224  95.2688 15.69906979 22611,6737.3,91.725,360.843,357.487,0.0
56789.0,STARLINK-6325,PAYLOAD,2023-10-20 15:29:38,15.69913721,0.0002666,69.9975,13.0077,257.8275,102.2622,-4.917e-06,-8.03e-06,0.0,0 STARLINK-6325,1 56789U 23078Y   23293.64557932 -.00000803  00000-0 -49170-5 0  9994,2 56789  69.9975  13.0077 0002666 257.8275 102.2622 15.69913721 22650,6737.281,91.725,360.942,357.35,0.0
56789.0,STARLINK-6325,PAYLOAD,2023-10-21 11:22:23,15.6992274,0.0003144,69.9957,10.6768,267.4246,92.659,1.5845e-05,1.693e-05,0.0,0 STARLINK-6325,1 56789U 23078Y   23294.47388205  .00001693  00000-0  15845-4 0  9998,2 56789  69.9957  10.6768 0003144 267.4246  92.6590 15.69922740 22788,6737.255,91.724,361.238,357.002,0.0
56789.0,STARLINK-6325,PAYLOAD,2023-10-21 22:04:39,15.69924804,0.0003515,69.997,9.4231,270.9705,89.1088,6.7659e-06,6.01e-06,0.0,0 STARLINK-6325,1 56789U 23078Y   23294.91990124  .00000601  00000-0  67659-5 0  9995,2 56789  69.9970   9.4231 0003515 270.9705  89.1088 15.69924804 23265,6737.249,91.724,361.482,356.746,0.0
